BRISAT                  
1 41591U 16039A   26063.42891916  .00000000  00000+0  00000+0 0  9994
2 41591   0.0208 150.6767 0002185 195.3165 121.0961  1.00268538 35562
ECHOSTAR 18             
1 41592U 16039B   26063.15044815 -.00000294  00000+0  00000+0 0  9999
2 41592   0.0179 126.5261 0001633 216.6720 171.4854  1.00271454 35574
TIANTONG-1 1            
1 41725U 16048A   26064.03276958 -.00000325  00000+0  00000+0 0  9995
2 41725   3.6516  42.4406 0005690 355.0272 238.5163  1.00272109 35228
JCSAT-16                
1 41729U 16050A   26064.25515724 -.00000260  00000+0  00000+0 0  9991
2 41729   0.0126 134.2703 0001121 221.2786  43.2299  1.00271134 35025
USA 270                 
1 41744U 16052A   26051.70824468 -.00000036  00000+0  00000+0 0  9995
2 41744   3.8986  78.6910 0003302 288.5278 204.8551  1.00327485 26963
USA 271                 
1 41745U 16052B   26051.81367943 -.00000346  00000+0  00000+0 0  9992
2 41745   3.8712  78.7558 0001639 331.9763 161.1961  1.00119522 26751
INTELSAT 36 (IS-36)     
1 41747U 16053A   26064.24142066 -.00000032  00000+0  00000+0 0  9995
2 41747   0.0155  86.6285 0001199 239.7885 351.9528  1.00270816 34918
INTELSAT 33E (IS-33E)   
1 41748U 16053B   26064.17614138 -.00000188  00000+0  00000+0 0  9994
2 41748   1.3059  85.7851 0024410 189.8737  37.7872  1.00165173 35200
INSAT-3DR               
1 41752U 16054A   26064.06333017 -.00000086  00000+0  00000+0 0  9999
2 41752   0.0489  96.2317 0013197 185.6547 337.6931  1.00272506 34773
GSAT-18                 
1 41793U 16060A   26064.06333017 -.00000086  00000+0  00000+0 0  9991
2 41793   0.0122 173.5149 0003310 225.8264 220.2259  1.00271702 34488
SKY MUSTER 2 (NBN1B)    
1 41794U 16060B   26064.24905831  .00000000  00000+0  00000+0 0  9996
2 41794   0.0204 163.2811 0001614 193.8987  40.2723  1.00267969 34478
HIMAWARI-9              
1 41836U 16064A   26064.24905831 -.00000283  00000+0  00000+0 0  9991
2 41836   0.0137 174.7942 0001199 197.6115  21.0158  1.00272099 34160
SHIJIAN-17 (SJ-17)      
1 41838U 16065A   26064.01263235  .00000105  00000+0  00000+0 0  9996
2 41838   5.4881  73.8585 0000981 308.4486 174.4998  0.99861605 34169
GOES 16                 
1 41866U 16071A   26064.27725734 -.00000099  00000+0  00000+0 0  9992
2 41866   0.1401  89.6705 0002464 221.2947 207.1543  1.00271815 34061
TIANLIAN 1-04           
1 41869U 16072A   26064.26157060  .00000022  00000+0  00000+0 0  9991
2 41869   0.5984  83.5536 0040745  95.5310 254.8206  1.00273410 34258
WGS F8 (USA 272)        
1 41879U 16075A   26063.42891916 -.00000214  00000+0  00000+0 0  9991
2 41879   0.0083 162.7764 0000266 281.9080  21.6980  1.00270672 33778
FENGYUN 4A              
1 41882U 16077A   26064.25117057 -.00000365  00000+0  00000+0 0  9993
2 41882   2.0582  81.4022 0007401 135.6917 159.8997  1.00278774 33889
